[{"OBJECT_NAME":"M2 PATHFINDER","OBJECT_ID":"2020-037E","EPOCH":"2026-03-09T11:30:45.742176","MEAN_MOTION":15.04175941,"ECCENTRICITY":0.00124059,"INCLINATION":97.8158,"RA_OF_ASC_NODE":258.5983,"ARG_OF_PERICENTER":127.8041,"MEAN_ANOMALY":232.431,"EPHEMERIS_TYPE":0,"CLASSIFICATION_TYPE":"U","NORAD_CAT_ID":45727,"ELEMENT_SET_NO":999,"REV_AT_EPOCH":31050,"BSTAR":0.00032591881,"MEAN_MOTION_DOT":4.468e-5,"MEAN_MOTION_DDOT":0},{"OBJECT_NAME":"STARLINK-6113","OBJECT_ID":"2023-046W","EPOCH":"2026-03-09T22:26:20.343552","MEAN_MOTION":15.02535048,"ECCENTRICITY":0.00014204,"INCLINATION":43.0033,"RA_OF_ASC_NODE":157.2072,"ARG_OF_PERICENTER":260.7518,"MEAN_ANOMALY":99.3164,"EPHEMERIS_TYPE":0,"CLASSIFICATION_TYPE":"U","NORAD_CAT_ID":56113,"ELEMENT_SET_NO":999,"REV_AT_EPOCH":16210,"BSTAR":7.014319e-6,"MEAN_MOTION_DOT":-1.09e-6,"MEAN_MOTION_DDOT":0}]
